{
  "type": "FeatureCollection",
  "features": [
    {
      "type": "Feature",
      "properties": {
        "name": "sample field, Lodi",
        "description": "Sample area (about 1.5 km2) in the arable farmland south-west of Lodi, Lombardy, Italy. Drawn for the cdse-client examples: it is not a surveyed parcel boundary and may span several real fields."
      },
      "geometry": {
        "type": "Polygon",
        "coordinates": [
          [
            [9.4705, 45.2902],
            [9.4895, 45.2910],
            [9.4890, 45.3000],
            [9.4712, 45.2993],
            [9.4705, 45.2902]
          ]
        ]
      }
    }
  ]
}
